0 SL-16 DEB
1 22604U 93016N   13282.36850687 -.00000014  00000-0  27308-4 0  9396
2 22604 070.9952 254.6141 0170538 200.0847 313.6326 13.76206898 31655
0 SL-16 DEB
1 22604U 93016N   13287.31053584 -.00000044  00000-0 -50607-6 0  9414
2 22604 070.9960 244.8786 0170278 193.0600 318.1362 13.76207180 32330
0 SL-16 DEB
1 22604U 93016N   13289.33060310 -.00000018  00000-0  23635-4 0  9423
2 22604 070.9963 240.8994 0170158 190.1781 246.2533 13.76207040 32612
0 SL-16 DEB
1 22604U 93016N   13292.17071404  .00000008  00000-0  47621-4 0  9435
2 22604 070.9964 235.3053 0170015 186.1409 277.1368 13.76207042 33007
0 SL-16 DEB
1 22604U 93016N   13294.20842759  .00000000  00000-0  39915-4 0  9440
2 22604 070.9963 231.2918 0169908 183.2357 292.6765 13.76207324 33286
